GPS BIIR-2  (PRN 13)    
1 24876U 97035A   16078.36305821  .00000009  00000-0  00000+0 0  9999
2 24876  55.6897 245.0723 0044004 115.0413 245.3915  2.00562623136688
GPS BIIR-3  (PRN 11)    
1 25933U 99055A   16078.56935522  .00000003  00000-0  00000+0 0  9991
2 25933  51.3363  97.6421 0159925  86.3476 348.1851  2.00564829120503
GPS BIIR-4  (PRN 20)    
1 26360U 00025A   16078.42806772 -.00000058  00000-0  00000+0 0  9995
2 26360  53.0704 173.8978 0045484  76.5332 358.6069  2.00559012116191
GPS BIIR-5  (PRN 28)    
1 26407U 00040A   16078.25936249 -.00000104  00000-0  00000+0 0  9990
2 26407  56.6985   2.9137 0201008 267.2575 323.5909  2.00569721114871
GPS BIIR-6  (PRN 14)    
1 26605U 00071A   16078.59274506  .00000003  00000-0  00000+0 0  9999
2 26605  55.2593 242.9665 0086073 248.6052 156.2573  2.00555938112476
GPS BIIR-7  (PRN 18)    
1 26690U 01004A   16078.59475286 -.00000059  00000-0  00000+0 0  9990
2 26690  52.9988 176.8656 0170610 251.1533 251.2484  2.00563485110876
GPS BIIR-8  (PRN 16)    
1 27663U 03005A   16078.46733714 -.00000105  00000-0  00000+0 0  9995
2 27663  56.7737   2.6176 0085957  18.2522 125.5014  2.00558141 96242
GPS BIIR-9  (PRN 21)    
1 27704U 03010A   16078.42857564  .00000002  00000-0  00000+0 0  9998
2 27704  53.6221 117.1577 0234795 256.1451 181.1702  2.00565910 95039
GPS BIIR-10 (PRN 22)    
1 28129U 03058A   16074.03632236 -.00000013  00000-0  00000+0 0  9995
2 28129  52.8765 177.0992 0079683 245.4809 113.6988  2.00399826 89650
GPS BIIR-11 (PRN 19)    
1 28190U 04009A   16078.34346862 -.00000015  00000-0  00000+0 0  9997
2 28190  55.7372  64.0061 0106075  40.6148 161.1597  2.00571513 87908
GPS BIIR-12 (PRN 23)    
1 28361U 04023A   16078.56904429 -.00000004  00000-0  00000+0 0  9994
2 28361  54.2283 238.5463 0107337 211.8418  68.8763  2.00558972 85990
GPS BIIR-13 (PRN 02)    
1 28474U 04045A   16078.29015671  .00000002  00000-0  00000+0 0  9992
2 28474  54.0129 116.4485 0157387 237.4229 205.1741  2.00555341 83351
GPS BIIRM-1 (PRN 17)    
1 28874U 05038A   16078.27952544 -.00000019  00000-0  00000+0 0  9995
2 28874  55.9042  61.2034 0112165 249.3703 294.1301  2.00565783 76757
GPS BIIRM-2 (PRN 31)    
1 29486U 06042A   16078.52852869 -.00000019  00000-0  00000+0 0  9998
2 29486  55.6924 300.4877 0083764 334.8697 308.9710  2.00559253 69474
GPS BIIRM-3 (PRN 12)    
1 29601U 06052A   16078.07829896 -.00000104  00000-0  00000+0 0  9997
2 29601  56.7441   1.5577 0058420  37.8990 322.5150  2.00553267 68380
GPS BIIRM-4 (PRN 15)    
1 32260U 07047A   16078.40202997 -.00000008  00000-0  00000+0 0  9994
2 32260  53.3574 235.3031 0079935  25.9772 334.3843  2.00576516 61775
GPS BIIRM-5 (PRN 29)    
1 32384U 07062A   16078.54350462 -.00000019  00000-0  00000+0 0  9996
2 32384  55.9586  61.7460 0011934 322.6819 278.6117  2.00572523 60502
GPS BIIRM-6 (PRN 07)    
1 32711U 08012A   16078.30901050 -.00000019  00000-0  00000+0 0  9995
2 32711  55.4156 299.9786 0092441 207.5353 152.0150  2.00564659 58696
GPS BIIRM-7 (PRN 04)    
1 34661U 09014A   16078.48225530 -.00000105  00000-0  00000+0 0  9991
2 34661  56.3458 359.8941 0081058  48.3229 143.6224  2.00571608 51223
GPS BIIRM-8 (PRN 05)    
1 35752U 09043A   16078.31749791 -.00000058  00000-0  00000+0 0  9994
2 35752  54.2230 177.9981 0044707  24.4170  10.0680  2.00554130 48278
GPS BIIF-1  (PRN 25)    
1 36585U 10022A   16078.46460779 -.00000105  00000-0  00000+0 0  9993
2 36585  56.0724 358.6731 0052425  39.6781 210.6590  2.00551281 42528
GPS BIIF-2  (PRN 01)    
1 37753U 11036A   16078.57572231  .00000006  00000-0  00000+0 0  9995
2 37753  55.2307 118.9582 0050738  23.5839  29.6934  2.00566233 34205
GPS BIIF-3  (PRN 24)    
1 38833U 12053A   16077.99170677 -.00000018  00000-0  00000+0 0  9992
2 38833  54.4476 297.3582 0042739  19.6158 340.5895  2.00568648 25277
GPS BIIF-4  (PRN 27)    
1 39166U 13023A   16078.34962400 -.00000026  00000-0  00000+0 0  9992
2 39166  55.6145  58.3650 0033485   8.4375 351.6194  2.00568187 20794
GPS BIIF-5  (PRN 30)    
1 39533U 14008A   16077.84962975 -.00000028  00000-0  00000+0 0  9997
2 39533  54.6015 302.5840 0017759 178.0962 181.9539  2.00569062 15169
GPS BIIF-6  (PRN 06)    
1 39741U 14026A   16078.12619191  .00000002  00000-0  00000+0 0  9990
2 39741  55.2215 118.4922 0006175 264.6605  95.3380  2.00565547 13445
GPS BIIF-7  (PRN 09)    
1 40105U 14045A   16078.21992835  .00000001  00000-0  00000+0 0  9995
2 40105  54.7468 238.2228 0004575 126.2385 233.7711  2.00569833 11890
GPS BIIF-8  (PRN 03)    
1 40294U 14068A   16078.09009360 -.00000056  00000-0  00000+0 0  9998
2 40294  54.9622 178.6354 0003853 232.4457 127.5202  2.00555136 10118
GPS BIIF-9  (PRN 26)    
1 40534U 15013A   16078.22957971 -.00000106  00000-0  00000+0 0  9997
2 40534  55.0412 358.2391 0009760 346.8780  13.1056  2.00557626  7189
GPS BIIF-10  (PRN 08)   
1 40730U 15033A   16078.38691253 -.00000027  00000-0  00000+0 0  9994
2 40730  55.1512  58.2408 0020523 285.2340  74.5403  2.00564926  4942
GPS BIIF-11  (PRN 10)   
1 41019U 15062A   16077.94188865 -.00000056  00000-0  00000+0 0  9990
2 41019  54.9777 178.4072 0012964 206.0471 153.8888  2.00562045  2756
GPS BIIF-12  (PRN 32)   
1 41328U 16007A   16078.03464536  .00000004  00000-0  00000+0 0  9998
2 41328  55.0093 238.2888 0002631 274.3808  85.5569  2.00574454   824
